GLOBALSTAR M075         
1 37192U 10054E   25167.04758800 -.00000104  00000+0 -17202-5 0  9998
2 37192  51.9918 185.0070 0000095 111.4469 275.2828 12.62265850676233
GLOBALSTAR M073         
1 37193U 10054F   25167.23639325 -.00000098  00000+0  31836-4 0  9999
2 37193  52.0057  98.2486 0000592  31.2208 133.6531 12.62271975677760
GLOBALSTAR M083         
1 37739U 11033A   25167.40934356 -.00000098  00000+0  29873-4 0  9992
2 37739  51.9874  46.4563 0000584  73.6380  96.8931 12.62263864647112
GLOBALSTAR M088         
1 37740U 11033B   25166.90742056 -.00000089  00000+0  81969-4 0  9996
2 37740  52.0062 313.5327 0000851 117.3723  51.8629 12.62265517642235
GLOBALSTAR M091         
1 37741U 11033C   25167.07923767 -.00000078  00000+0  14134-3 0  9993
2 37741  52.0003 276.5071 0000684 150.1190  20.4801 12.62268770643309
GLOBALSTAR M085         
1 37742U 11033D   25166.58578904 -.00000086  00000+0  10001-3 0  9996
2 37742  51.9852 229.0487 0000458 175.2602 332.4080 12.62269404643983
GLOBALSTAR M081         
1 37743U 11033E   25167.13858302 -.00000090  00000+0  74259-4 0  9993
2 37743  51.9945 230.1535 0000254 182.4493 197.1599 12.62266553644092
GLOBALSTAR M089         
1 37744U 11033F   25167.33483615 -.00000104  00000+0 -15658-5 0  9993
2 37744  51.9901 183.7815 0000283  45.6650 327.5485 12.62264835644832
